start=new Date('2021-10-11T00:00:00.000Z').valueOf();
sats=[{"INCLINATION":"53.0425","CLASSIFICATION_TYPE":"U","COUNTRY_CODE":"US","RCS_SIZE":"LARGE","EPOCH":"2021-10-10T20:31:57.239040","EPHEMERIS_TYPE":"0","ECCENTRICITY":"0.00000670","MEAN_MOTION":"15.29391553","OBJECT_TYPE":"PAYLOAD","CENTER_NAME":"EARTH","MEAN_MOTION_DDOT":"0.0000000000000","ELEMENT_SET_NO":"999","REF_FRAME":"TEME","REV_AT_EPOCH":"3849","FILE":"3155694","DECAY_DATE":null,"TLE_LINE2":"2 47638  53.0425   8.7040 0000067  30.1971 329.9031 15.29391553 38496","NORAD_CAT_ID":"47638","APOAPSIS":"477.678","BSTAR":"-0.01143200000000","MEAN_ELEMENT_THEORY":"SGP4","SITE":"AFETR","SEMIMAJOR_AXIS":"6855.767","MEAN_MOTION_DOT":"-0.00316918","RA_OF_ASC_NODE":"8.7040","PERIAPSIS":"477.586","ARG_OF_PERICENTER":"30.1971","TIME_SYSTEM":"UTC","OBJECT_NAME":"STARLINK-2015","LAUNCH_DATE":"2021-02-16","GP_ID":"186839840","PERIOD":"94.155","MEAN_ANOMALY":"329.9031","TLE_LINE1":"1 47638U 21012U   21283.85552360 -.00316918  00000-0 -11432-1 0  9996","OBJECT_ID":"2021-012U"},{"NORAD_CAT_ID":"47639","APOAPSIS":"548.348","BSTAR":"0.00005980600000","MEAN_ELEMENT_THEORY":"SGP4","SITE":"AFETR","MEAN_MOTION_DOT":"0.00000609","SEMIMAJOR_AXIS":"6925.334","RA_OF_ASC_NODE":"83.3072","PERIAPSIS":"546.050","TIME_SYSTEM":"UTC","ARG_OF_PERICENTER":"90.1313","OBJECT_NAME":"STARLINK-2016","LAUNCH_DATE":"2021-02-16","GP_ID":"186841091","PERIOD":"95.592","MEAN_ANOMALY":"269.9866","TLE_LINE1":"1 47639U 21012V   21283.76840645  .00000609  00000-0  59806-4 0  9998","OBJECT_ID":"2021-012V","INCLINATION":"53.0544","CLASSIFICATION_TYPE":"U","COUNTRY_CODE":"US","EPOCH":"2021-10-10T18:26:30.317280","RCS_SIZE":"LARGE","ECCENTRICITY":"0.00016590","EPHEMERIS_TYPE":"0","MEAN_MOTION":"15.06404820","CENTER_NAME":"EARTH","OBJECT_TYPE":"PAYLOAD","ELEMENT_SET_NO":"999","MEAN_MOTION_DDOT":"0.0000000000000","REF_FRAME":"TEME","REV_AT_EPOCH":"3744","DECAY_DATE":null,"FILE":"3155694","TLE_LINE2":"2 47639  53.0544  83.3072 0001659  90.1313 269.9866 15.06404820 37447"},{"TLE_LINE1":"1 47640U 21012W   21283.76289643  .00000218  00000-0  33555-4 0  9994","OBJECT_ID":"2021-012W","MEAN_ANOMALY":"303.1811","PERIOD":"95.592","LAUNCH_DATE":"2021-02-16","GP_ID":"186841342","ARG_OF_PERICENTER":"56.9364","TIME_SYSTEM":"UTC","OBJECT_NAME":"STARLINK-2018","PERIAPSIS":"545.874","SITE":"AFETR","SEMIMAJOR_AXIS":"6925.350","MEAN_MOTION_DOT":"0.00000218","RA_OF_ASC_NODE":"103.3531","APOAPSIS":"548.557","BSTAR":"0.00003355500000","MEAN_ELEMENT_THEORY":"SGP4","NORAD_CAT_ID":"47640","TLE_LINE2":"2 47640  53.0547 103.3531 0001937  56.9364 303.1811 15.06399498 37186","REV_AT_EPOCH":"3718","DECAY_DATE":null,"FILE":"3155694","MEAN_MOTION_DDOT":"0.0000000000000","ELEMENT_SET_NO":"999","REF_FRAME":"TEME","MEAN_MOTION":"15.06399498","OBJECT_TYPE":"PAYLOAD","CENTER_NAME":"EARTH","ECCENTRICITY":"0.00019370","EPHEMERIS_TYPE":"0","RCS_SIZE":"LARGE","EPOCH":"2021-10-10T18:18:34.251552","COUNTRY_CODE":"US","INCLINATION":"53.0547","CLASSIFICATION_TYPE":"U"},{"OBJECT_NAME":"STARLINK-2019","ARG_OF_PERICENTER":"47.1520","TIME_SYSTEM":"UTC","GP_ID":"186840090","LAUNCH_DATE":"2021-02-16","MEAN_ANOMALY":"166.0465","PERIOD":"94.382","TLE_LINE1":"1 47641U 21012X   21284.00001157 -.01064908  00000-0 -44980-1 0  9995","OBJECT_ID":"2021-012X","NORAD_CAT_ID":"47641","MEAN_ELEMENT_THEORY":"SGP4","BSTAR":"-0.04498000000000","APOAPSIS":"489.771","RA_OF_ASC_NODE":"7.8426","SEMIMAJOR_AXIS":"6866.757","SITE":"AFETR","MEAN_MOTION_DOT":"-0.01064908","PERIAPSIS":"487.472","CENTER_NAME":"EARTH","OBJECT_TYPE":"PAYLOAD","MEAN_MOTION":"15.25721579","REF_FRAME":"TEME","MEAN_MOTION_DDOT":"0.0000000000000","ELEMENT_SET_NO":"999","FILE":"3155694","DECAY_DATE":null,"REV_AT_EPOCH":"366","TLE_LINE2":"2 47641  53.0438   7.8426 0001674  47.1520 166.0465 15.25721579  3668","INCLINATION":"53.0438","CLASSIFICATION_TYPE":"U","COUNTRY_CODE":"US","RCS_SIZE":"LARGE","EPOCH":"2021-10-11T00:00:00.999648","ECCENTRICITY":"0.00016740","EPHEMERIS_TYPE":"0"},{"RA_OF_ASC_NODE":"98.3293","MEAN_MOTION_DOT":"0.00000216","SITE":"AFETR","SEMIMAJOR_AXIS":"6925.355","PERIAPSIS":"545.998","NORAD_CAT_ID":"47642","MEAN_ELEMENT_THEORY":"SGP4","APOAPSIS":"548.443","BSTAR":"0.00003338400000","MEAN_ANOMALY":"265.9218","PERIOD":"95.592","TLE_LINE1":"1 47642U 21012Y   21283.76423180  .00000216  00000-0  33384-4 0  9990","OBJECT_ID":"2021-012Y","OBJECT_NAME":"STARLINK-2020","TIME_SYSTEM":"UTC","ARG_OF_PERICENTER":"94.1972","GP_ID":"186840340","LAUNCH_DATE":"2021-02-16","EPOCH":"2021-10-10T18:20:29.627520","RCS_SIZE":"LARGE","ECCENTRICITY":"0.00017650","EPHEMERIS_TYPE":"0","INCLINATION":"53.0544","CLASSIFICATION_TYPE":"U","COUNTRY_CODE":"US","FILE":"3155694","DECAY_DATE":null,"REV_AT_EPOCH":"3724","TLE_LINE2":"2 47642  53.0544  98.3293 0001765  94.1972 265.9218 15.06397770 37245","OBJECT_TYPE":"PAYLOAD","CENTER_NAME":"EARTH","MEAN_MOTION":"15.06397770","REF_FRAME":"TEME","ELEMENT_SET_NO":"999","MEAN_MOTION_DDOT":"0.0000000000000"},{"TLE_LINE2":"2 47643  53.0536  83.2457 0002009  92.2664 267.8555 15.06400081 37460","REV_AT_EPOCH":"3746","DECAY_DATE":null,"FILE":"3155694","MEAN_MOTION_DDOT":"0.0000000000000","ELEMENT_SET_NO":"999","REF_FRAME":"TEME","MEAN_MOTION":"15.06400081","CENTER_NAME":"EARTH","OBJECT_TYPE":"PAYLOAD","ECCENTRICITY":"0.00020090","EPHEMERIS_TYPE":"0","RCS_SIZE":"LARGE","EPOCH":"2021-10-10T18:47:44.155680","COUNTRY_CODE":"US","CLASSIFICATION_TYPE":"U","INCLINATION":"53.0536","TLE_LINE1":"1 47643U 21012Z   21283.78314995 -.00000558  00000-0 -18534-4 0  9997","OBJECT_ID":"2021-012Z","PERIOD":"95.592","MEAN_ANOMALY":"267.8555","LAUNCH_DATE":"2021-02-16","GP_ID":"186840592","ARG_OF_PERICENTER":"92.2664","TIME_SYSTEM":"UTC","OBJECT_NAME":"STARLINK-2022","PERIAPSIS":"545.822","SEMIMAJOR_AXIS":"6925.348","SITE":"AFETR","MEAN_MOTION_DOT":"-0.00000558","RA_OF_ASC_NODE":"83.2457","APOAPSIS":"548.605","BSTAR":"-0.00001853400000","MEAN_ELEMENT_THEORY":"SGP4","NORAD_CAT_ID":"47643"},{"EPHEMERIS_TYPE":"0","ECCENTRICITY":"0.00019130","EPOCH":"2021-10-10T19:06:19.057824","RCS_SIZE":"LARGE","COUNTRY_CODE":"US","CLASSIFICATION_TYPE":"U","INCLINATION":"53.0539","TLE_LINE2":"2 47644  53.0539 103.2052 0001913  88.8185 271.3023 15.06412326 37195","REV_AT_EPOCH":"3719","FILE":"3155694","DECAY_DATE":null,"ELEMENT_SET_NO":"999","MEAN_MOTION_DDOT":"0.0000000000000","REF_FRAME":"TEME","MEAN_MOTION":"15.06412326","OBJECT_TYPE":"PAYLOAD","CENTER_NAME":"EARTH","PERIAPSIS":"545.851","MEAN_MOTION_DOT":"0.00001638","SITE":"AFETR","SEMIMAJOR_AXIS":"6925.311","RA_OF_ASC_NODE":"103.2052","BSTAR":"0.00012879000000","APOAPSIS":"548.501","MEAN_ELEMENT_THEORY":"SGP4","NORAD_CAT_ID":"47644","OBJECT_ID":"2021-012AA","TLE_LINE1":"1 47644U 21012AA  21283.79605391  .00001638  00000-0  12879-3 0  9995","MEAN_ANOMALY":"271.3023","PERIOD":"95.591","LAUNCH_DATE":"2021-02-16","GP_ID":"186840843","TIME_SYSTEM":"UTC","ARG_OF_PERICENTER":"88.8185","OBJECT_NAME":"STARLINK-2026"},{"RA_OF_ASC_NODE":"73.2188","SEMIMAJOR_AXIS":"6925.341","SITE":"AFETR","MEAN_MOTION_DOT":"-0.00000306","PERIAPSIS":"544.097","NORAD_CAT_ID":"47645","MEAN_ELEMENT_THEORY":"SGP4","APOAPSIS":"550.316","BSTAR":"-0.00000153110000","MEAN_ANOMALY":"44.9950","PERIOD":"95.592","TLE_LINE1":"1 47645U 21012AB  21283.79417711 -.00000306  00000-0 -15311-5 0  9992","OBJECT_ID":"2021-012AB","OBJECT_NAME":"STARLINK-2027","TIME_SYSTEM":"UTC","ARG_OF_PERICENTER":"315.0675","GP_ID":"186839591","LAUNCH_DATE":"2021-02-16","EPOCH":"2021-10-10T19:03:36.902304","RCS_SIZE":"LARGE","ECCENTRICITY":"0.00044900","EPHEMERIS_TYPE":"0","INCLINATION":"53.0504","CLASSIFICATION_TYPE":"U","COUNTRY_CODE":"US","DECAY_DATE":null,"FILE":"3155694","REV_AT_EPOCH":"3758","TLE_LINE2":"2 47645  53.0504  73.2188 0004490 315.0675  44.9950 15.06402391 37583","CENTER_NAME":"EARTH","OBJECT_TYPE":"PAYLOAD","MEAN_MOTION":"15.06402391","REF_FRAME":"TEME","ELEMENT_SET_NO":"999","MEAN_MOTION_DDOT":"0.0000000000000"},{"OBJECT_TYPE":"PAYLOAD","CENTER_NAME":"EARTH","MEAN_MOTION":"15.06399131","REF_FRAME":"TEME","ELEMENT_SET_NO":"999","MEAN_MOTION_DDOT":"0.0000000000000","DECAY_DATE":null,"FILE":"3155694","REV_AT_EPOCH":"3805","TLE_LINE2":"2 47646  53.0568  38.8551 0001150 116.3509 243.7598 15.06399131 38050","INCLINATION":"53.0568","CLASSIFICATION_TYPE":"U","COUNTRY_CODE":"US","EPOCH":"2021-10-10T15:33:17.447904","RCS_SIZE":"LARGE","EPHEMERIS_TYPE":"0","ECCENTRICITY":"0.00011500","OBJECT_NAME":"STARLINK-2028","TIME_SYSTEM":"UTC","ARG_OF_PERICENTER":"116.3509","GP_ID":"186839841","LAUNCH_DATE":"2021-02-16","PERIOD":"95.592","MEAN_ANOMALY":"243.7598","OBJECT_ID":"2021-012AC","TLE_LINE1":"1 47646U 21012AC  21283.64811861  .00001148  00000-0  95977-4 0  9999","NORAD_CAT_ID":"47646","MEAN_ELEMENT_THEORY":"SGP4","APOAPSIS":"548.013","BSTAR":"0.00009597700000","RA_OF_ASC_NODE":"38.8551","SITE":"AFETR","MEAN_MOTION_DOT":"0.00001148","SEMIMAJOR_AXIS":"6925.351","PERIAPSIS":"546.420"},{"INCLINATION":"53.0550","CLASSIFICATION_TYPE":"U","COUNTRY_CODE":"US","EPOCH":"2021-10-10T20:57:46.181952","RCS_SIZE":"LARGE","EPHEMERIS_TYPE":"0","ECCENTRICITY":"0.00020190","OBJECT_TYPE":"PAYLOAD","CENTER_NAME":"EARTH","MEAN_MOTION":"15.06397550","REF_FRAME":"TEME","ELEMENT_SET_NO":"999","MEAN_MOTION_DDOT":"0.0000000000000","DECAY_DATE":null,"FILE":"3155694","REV_AT_EPOCH":"3720","TLE_LINE2":"2 47647  53.0550 102.8499 0002019  90.9676 269.1544 15.06397550 37204","NORAD_CAT_ID":"47647","MEAN_ELEMENT_THEORY":"SGP4","APOAPSIS":"548.619","BSTAR":"0.00010714000000","RA_OF_ASC_NODE":"102.8499","MEAN_MOTION_DOT":"0.00001314","SITE":"AFETR","SEMIMAJOR_AXIS":"6925.356","PERIAPSIS":"545.823","OBJECT_NAME":"STARLINK-2030","TIME_SYSTEM":"UTC","ARG_OF_PERICENTER":"90.9676","GP_ID":"186841092","LAUNCH_DATE":"2021-02-16","PERIOD":"95.592","MEAN_ANOMALY":"269.1544","TLE_LINE1":"1 47647U 21012AD  21283.87345118  .00001314  00000-0  10714-3 0  9992","OBJECT_ID":"2021-012AD"}];
